GPS BIII-10 (PRN 13)    
1 68791U 26087A   26128.62475796  .00000006  00000+0  00000+0 0  9993
2 68791  54.9695 209.3529 0004379 269.5562 161.1730  2.00570039    48
